{"fetched_at":"2026-07-23T07:06:12.162Z","source":"https://celestrak.org/NORAD/elements/gp.php?NAME=YAM&FORMAT=JSON","constellation":"earthdaily-constellation","records":[{"OBJECT_NAME":"YAM-10","OBJECT_ID":"2025-135BE","EPOCH":"2026-07-22T06:58:37.575552","CLASSIFICATION_TYPE":"U","MEAN_MOTION":14.91917607,"ECCENTRICITY":0.00021834,"INCLINATION":97.7755,"RA_OF_ASC_NODE":316.662,"ARG_OF_PERICENTER":210.6927,"MEAN_ANOMALY":149.4164,"EPHEMERIS_TYPE":0,"NORAD_CAT_ID":64580,"ELEMENT_SET_NO":999,"REV_AT_EPOCH":5909,"BSTAR":0.00012417604,"MEAN_MOTION_DOT":0.000012,"MEAN_MOTION_DDOT":0},{"OBJECT_NAME":"YAM-11","OBJECT_ID":"2026-100M","EPOCH":"2026-07-22T11:58:05.408544","CLASSIFICATION_TYPE":"U","MEAN_MOTION":14.9061509,"ECCENTRICITY":0.00091591,"INCLINATION":97.782,"RA_OF_ASC_NODE":100.149,"ARG_OF_PERICENTER":336.7079,"MEAN_ANOMALY":23.3723,"EPHEMERIS_TYPE":0,"NORAD_CAT_ID":68991,"ELEMENT_SET_NO":999,"REV_AT_EPOCH":1195,"BSTAR":0.00011125906,"MEAN_MOTION_DOT":0.00001034,"MEAN_MOTION_DDOT":0},{"OBJECT_NAME":"YAM-16","OBJECT_ID":"2026-100N","EPOCH":"2026-07-22T16:59:54.122784","CLASSIFICATION_TYPE":"U","MEAN_MOTION":14.91530162,"ECCENTRICITY":0.00044131,"INCLINATION":97.7328,"RA_OF_ASC_NODE":100.4642,"ARG_OF_PERICENTER":45.1171,"MEAN_ANOMALY":315.0405,"EPHEMERIS_TYPE":0,"NORAD_CAT_ID":68992,"ELEMENT_SET_NO":999,"REV_AT_EPOCH":1199,"BSTAR":0.00011365682,"MEAN_MOTION_DOT":0.00001083,"MEAN_MOTION_DDOT":0},{"OBJECT_NAME":"YAM-13","OBJECT_ID":"2026-100P","EPOCH":"2026-07-22T15:45:09.019296","CLASSIFICATION_TYPE":"U","MEAN_MOTION":14.90425546,"ECCENTRICITY":0.00089644,"INCLINATION":97.7855,"RA_OF_ASC_NODE":100.4086,"ARG_OF_PERICENTER":333.5451,"MEAN_ANOMALY":26.5308,"EPHEMERIS_TYPE":0,"NORAD_CAT_ID":68993,"ELEMENT_SET_NO":999,"REV_AT_EPOCH":1198,"BSTAR":0.00012772492,"MEAN_MOTION_DOT":0.0000119,"MEAN_MOTION_DDOT":0},{"OBJECT_NAME":"YAM-15","OBJECT_ID":"2026-100T","EPOCH":"2026-07-22T15:24:00.352800","CLASSIFICATION_TYPE":"U","MEAN_MOTION":14.9066202,"ECCENTRICITY":0.0008769,"INCLINATION":97.7851,"RA_OF_ASC_NODE":100.4208,"ARG_OF_PERICENTER":348.2193,"MEAN_ANOMALY":11.8818,"EPHEMERIS_TYPE":0,"NORAD_CAT_ID":68997,"ELEMENT_SET_NO":999,"REV_AT_EPOCH":1198,"BSTAR":0.0001069056,"MEAN_MOTION_DOT":0.00000993,"MEAN_MOTION_DDOT":0},{"OBJECT_NAME":"YAM-12","OBJECT_ID":"2026-100Z","EPOCH":"2026-07-22T06:44:50.714592","CLASSIFICATION_TYPE":"U","MEAN_MOTION":14.90468118,"ECCENTRICITY":0.00090721,"INCLINATION":97.7853,"RA_OF_ASC_NODE":99.9492,"ARG_OF_PERICENTER":322.5609,"MEAN_ANOMALY":37.4976,"EPHEMERIS_TYPE":0,"NORAD_CAT_ID":69003,"ELEMENT_SET_NO":999,"REV_AT_EPOCH":1191,"BSTAR":0.00034734711,"MEAN_MOTION_DOT":0.00003336,"MEAN_MOTION_DDOT":0},{"OBJECT_NAME":"YAM-14","OBJECT_ID":"2026-100AE","EPOCH":"2026-07-22T16:15:26.546112","CLASSIFICATION_TYPE":"U","MEAN_MOTION":14.90366921,"ECCENTRICITY":0.00055385,"INCLINATION":97.7842,"RA_OF_ASC_NODE":100.3628,"ARG_OF_PERICENTER":15.8914,"MEAN_ANOMALY":344.2477,"EPHEMERIS_TYPE":0,"NORAD_CAT_ID":69008,"ELEMENT_SET_NO":999,"REV_AT_EPOCH":1197,"BSTAR":0.00011891977,"MEAN_MOTION_DOT":0.00001102,"MEAN_MOTION_DDOT":0}]}
