{"epoch":1784799577,"count":18318,"objects":[{"id":"64580","name":"YAM-10","type":"PAYLOAD","l1":"1 64580U 25135BE  26203.29071268  .00001200  00000-0  12418-3 0  9999","l2":"2 64580  97.7755 316.6620 0002183 210.6927 149.4164 14.91917607 59097"},{"id":"68991","name":"YAM-11","type":"PAYLOAD","l1":"1 68991U 26100M   26203.49867371  .00001034  00000-0  11126-3 0  9992","l2":"2 68991  97.7820 100.1490 0009159 336.7079  23.3723 14.90615090 11953"},{"id":"68992","name":"YAM-16","type":"PAYLOAD","l1":"1 68992U 26100N   26203.70826531  .00001083  00000-0  11366-3 0  9990","l2":"2 68992  97.7328 100.4642 0004413  45.1171 315.0405 14.91530162 11990"},{"id":"68993","name":"YAM-13","type":"PAYLOAD","l1":"1 68993U 26100P   26203.65635439  .00001190  00000-0  12772-3 0  9991","l2":"2 68993  97.7855 100.4086 0008964 333.5451  26.5308 14.90425546 11981"},{"id":"68997","name":"YAM-15","type":"PAYLOAD","l1":"1 68997U 26100T   26203.64167075  .00000993  00000-0  10691-3 0  9998","l2":"2 68997  97.7851 100.4208 0008769 348.2193  11.8818 14.90662020 11989"},{"id":"69003","name":"YAM-12","type":"PAYLOAD","l1":"1 69003U 26100Z   26203.28114253  .00003336  00000-0  34735-3 0  9996","l2":"2 69003  97.7853  99.9492 0009072 322.5609  37.4976 14.90468118 11916"},{"id":"69008","name":"YAM-14","type":"PAYLOAD","l1":"1 69008U 26100AE  26203.67739058  .00001102  00000-0  11892-3 0  9998","l2":"2 69008  97.7842 100.3628 0005539  15.8914 344.2477 14.90366921 11972"}]}